CCSDS_OMM_VERS,COMMENT,CREATION_DATE,ORIGINATOR,OBJECT_NAME,OBJECT_ID,CENTER_NAME,REF_FRAME,TIME_SYSTEM,MEAN_ELEMENT_THEORY,EPOCH,MEAN_MOTION,ECCENTRICITY,INCLINATION,RA_OF_ASC_NODE,ARG_OF_PERICENTER,MEAN_ANOMALY,EPHEMERIS_TYPE,CLASSIFICATION_TYPE,NORAD_CAT_ID,ELEMENT_SET_NO,REV_AT_EPOCH,BSTAR,MEAN_MOTION_DOT,MEAN_MOTION_DDOT,SEMIMAJOR_AXIS,PERIOD,APOAPSIS,PERIAPSIS,OBJECT_TYPE,RCS_SIZE,COUNTRY_CODE,LAUNCH_DATE,SITE,DECAY_DATE,FILE,GP_ID,TLE_LINE0,TLE_LINE1,TLE_LINE2
"2.0","GENERATED VIA SPACE-TRACK.ORG API","2013-08-30T08:29:35","18 SPCS","PAYLOAD A","2013-037A","EARTH","TEME","UTC","SGP4","2013-08-30T11:12:44.092799","14.68166757","0.00076240","98.0574","259.4889","231.8606","128.1917","0","U","39208","999","609","0.00006654300000","0.00000334","0.0000000000000","7045.068","98.081","672.304","661.561","PAYLOAD","LARGE","PRC","2013-07-19","TSC","","1539617","93707950","0 PAYLOAD A","1 39208U 13037A   13242.46717700  .00000334  00000-0  66543-4 0  9998","2 39208 098.0574 259.4889 0007624 231.8606 128.1917 14.68166757  6092"
"2.0","GENERATED VIA SPACE-TRACK.ORG API","2013-08-30T18:05:34","18 SPCS","PAYLOAD C","2013-037C","EARTH","TEME","UTC","SGP4","2013-08-30T18:11:33.174240","14.94978874","0.00318490","97.6973","259.8787","260.5830","99.1767","0","U","39210","999","617","0.00000243460000","-0.00000032","0.0000000000000","6960.579","96.322","604.613","560.276","PAYLOAD","LARGE","PRC","2013-07-19","TSC","","1539937","93713195","0 PAYLOAD C","1 39210U 13037C   13242.75802285 -.00000032  00000-0  24346-5 0  9998","2 39210 097.6973 259.8787 0031849 260.5830 099.1767 14.94978874  6177"
"2.0","GENERATED VIA SPACE-TRACK.ORG API","2013-08-30T18:03:52","18 SPCS","PAYLOAD B","2013-037B","EARTH","TEME","UTC","SGP4","2013-08-30T18:23:39.241824","14.67229026","0.00037490","98.0562","259.7200","212.2496","147.8469","0","U","39209","999","612","0.00006889800000","0.00000340","0.0000000000000","7048.069","98.144","672.576","667.292","PAYLOAD","LARGE","PRC","2013-07-19","TSC","","1539935","93713157","0 PAYLOAD B","1 39209U 13037B   13242.76642641  .00000340  00000-0  68898-4 0  9995","2 39209 098.0562 259.7200 0003749 212.2496 147.8469 14.67229026  6126"
"2.0","GENERATED VIA SPACE-TRACK.ORG API","2013-08-30T16:32:02","18 SPCS","PAYLOAD A","2013-037A","EARTH","TEME","UTC","SGP4","2013-08-30T19:23:26.277791","14.68165589","0.00076070","98.0571","259.8246","230.6008","129.4507","0","U","39208","999","614","0.00001685300000","0.00000048","0.0000000000000","7045.071","98.081","672.296","661.577","PAYLOAD","LARGE","PRC","2013-07-19","TSC","","1539827","93711135","0 PAYLOAD A","1 39208U 13037A   13242.80794303  .00000048  00000-0  16853-4 0  9991","2 39208 098.0571 259.8246 0007607 230.6008 129.4507 14.68165589  6141"
"2.0","GENERATED VIA SPACE-TRACK.ORG API","2013-08-31T02:15:43","18 SPCS","PAYLOAD C","2013-037C","EARTH","TEME","UTC","SGP4","2013-08-31T02:13:27.884639","14.94979498","0.00318940","97.6971","260.2072","259.4723","100.2921","0","U","39210","999","622","0.00001392200000","0.00000094","0.0000000000000","6960.577","96.322","604.642","560.242","PAYLOAD","LARGE","PRC","2013-07-19","TSC","","1540108","93715601","0 PAYLOAD C","1 39210U 13037C   13243.09268385  .00000094  00000-0  13922-4 0  9997","2 39210 097.6971 260.2072 0031894 259.4723 100.2921 14.94979498  6221"
"2.0","GENERATED VIA SPACE-TRACK.ORG API","2013-08-31T02:15:26","18 SPCS","PAYLOAD B","2013-037B","EARTH","TEME","UTC","SGP4","2013-08-31T02:34:40.169567","14.67229490","0.00037810","98.0561","260.0552","210.8538","149.2449","0","U","39209","999","617","0.00007362200000","0.00000367","0.0000000000000","7048.068","98.144","672.597","667.268","PAYLOAD","LARGE","PRC","2013-07-19","TSC","","1540107","93715573","0 PAYLOAD B","1 39209U 13037B   13243.10740937  .00000367  00000-0  73622-4 0  9991","2 39209 098.0561 260.0552 0003781 210.8538 149.2449 14.67229490  6171"
"2.0","GENERATED VIA SPACE-TRACK.ORG API","2013-08-31T00:31:01","18 SPCS","PAYLOAD A","2013-037A","EARTH","TEME","UTC","SGP4","2013-08-31T03:34:08.402304","14.68166786","0.00076480","98.0567","260.1599","229.4487","130.6068","0","U","39208","999","619","0.00005508700000","0.00000268","0.0000000000000","7045.067","98.081","672.321","661.544","PAYLOAD","LARGE","PRC","2013-07-19","TSC","","1540038","93713960","0 PAYLOAD A","1 39208U 13037A   13243.14870836  .00000268  00000-0  55087-4 0  9991","2 39208 098.0567 260.1599 0007648 229.4487 130.6068 14.68166786  6195"
"2.0","GENERATED VIA SPACE-TRACK.ORG API","2013-08-31T01:18:32","18 SPCS","PAYLOAD A","2013-037A","EARTH","TEME","UTC","SGP4","2013-08-31T06:50:25.230336","14.68166795","0.00076140","98.0571","260.2941","228.9490","131.1051","0","U","39208","999","621","0.00005282900000","0.00000255","0.0000000000000","7045.067","98.081","672.297","661.568","PAYLOAD","LARGE","PRC","2013-07-19","TSC","","1540072","93714801","0 PAYLOAD A","1 39208U 13037A   13243.28501424  .00000255  00000-0  52829-4 0  9997","2 39208 098.0571 260.2941 0007614 228.9490 131.1051 14.68166795  6214"
"2.0","GENERATED VIA SPACE-TRACK.ORG API","2013-08-31T08:33:13","18 SPCS","PAYLOAD A","2013-037A","EARTH","TEME","UTC","SGP4","2013-08-31T10:06:42.094656","14.68167318","0.00076250","98.0568","260.4284","228.4233","131.6334","0","U","39208","999","623","0.00006899100000","0.00000348","0.0000000000000","7045.066","98.081","672.303","661.559","PAYLOAD","LARGE","PRC","2013-07-19","TSC","","1540146","93716377","0 PAYLOAD A","1 39208U 13037A   13243.42132054  .00000348  00000-0  68991-4 0  9992","2 39208 098.0568 260.4284 0007625 228.4233 131.6334 14.68167318  6237"
"2.0","GENERATED VIA SPACE-TRACK.ORG API","2013-08-31T10:10:00","18 SPCS","PAYLOAD C","2013-037C","EARTH","TEME","UTC","SGP4","2013-08-31T10:15:22.537152","14.94979408","0.00318810","97.6973","260.5360","258.3792","101.3847","0","U","39210","999","627","0.00000838740000","0.00000033","0.0000000000000","6960.578","96.322","604.634","560.252","PAYLOAD","LARGE","PRC","2013-07-19","TSC","","1540238","93718583","0 PAYLOAD C","1 39210U 13037C   13243.42734418  .00000033  00000-0  83874-5 0  9996","2 39210 097.6973 260.5360 0031881 258.3792 101.3847 14.94979408  6271"
"2.0","GENERATED VIA SPACE-TRACK.ORG API","2013-08-31T10:07:49","18 SPCS","PAYLOAD B","2013-037B","EARTH","TEME","UTC","SGP4","2013-08-31T10:45:41.082623","14.67229923","0.00037840","98.0564","260.3906","209.6677","150.4324","0","U","39209","999","622","0.00007783500000","0.00000391","0.0000000000000","7048.066","98.144","672.598","667.264","PAYLOAD","LARGE","PRC","2013-07-19","TSC","","1540237","93718549","0 PAYLOAD B","1 39209U 13037B   13243.44839216  .00000391  00000-0  77835-4 0  9994","2 39209 098.0564 260.3906 0003784 209.6677 150.4324 14.67229923  6226"
"2.0","GENERATED VIA SPACE-TRACK.ORG API","2013-08-31T17:29:20","18 SPCS","PAYLOAD C","2013-037C","EARTH","TEME","UTC","SGP4","2013-08-31T18:17:17.279519","14.94978213","0.00319050","97.6971","260.8643","257.1733","102.5916","0","U","39210","999","632","-0.00001498600000","-0.00000225","0.0000000000000","6960.581","96.322","604.654","560.239","PAYLOAD","LARGE","PRC","2013-07-19","TSC","","1540382","93721163","0 PAYLOAD C","1 39210U 13037C   13243.76200555 -.00000225  00000-0 -14986-4 0  9995","2 39210 097.6971 260.8643 0031905 257.1733 102.5916 14.94978213  6324"
"2.0","GENERATED VIA SPACE-TRACK.ORG API","2013-08-31T16:27:21","18 SPCS","PAYLOAD A","2013-037A","EARTH","TEME","UTC","SGP4","2013-08-31T18:17:24.201888","14.68166907","0.00076620","98.0568","260.7639","227.1188","132.9357","0","U","39208","999","628","0.00004856500000","0.00000231","0.0000000000000","7045.067","98.081","672.330","661.534","PAYLOAD","LARGE","PRC","2013-07-19","TSC","","1540304","93719324","0 PAYLOAD A","1 39208U 13037A   13243.76208567  .00000231  00000-0  48565-4 0  9998","2 39208 098.0568 260.7639 0007662 227.1188 132.9357 14.68166907  6287"
"2.0","GENERATED VIA SPACE-TRACK.ORG API","2013-08-31T17:28:00","18 SPCS","PAYLOAD B","2013-037B","EARTH","TEME","UTC","SGP4","2013-08-31T18:56:42.025056","14.67229586","0.00038150","98.0565","260.7261","209.1097","150.9891","0","U","39209","999","627","0.00006560400000","0.00000322","0.0000000000000","7048.067","98.144","672.621","667.243","PAYLOAD","LARGE","PRC","2013-07-19","TSC","","1540381","93721134","0 PAYLOAD B","1 39209U 13037B   13243.78937529  .00000322  00000-0  65604-4 0  9992","2 39209 098.0565 260.7261 0003815 209.1097 150.9891 14.67229586  6275"
"2.0","GENERATED VIA SPACE-TRACK.ORG API","2013-09-01T01:59:11","18 SPCS","PAYLOAD C","2013-037C","EARTH","TEME","UTC","SGP4","2013-09-01T02:19:11.989056","14.94978574","0.00319180","97.6971","261.1930","256.0643","103.7044","0","U","39210","999","637","-0.00000724300000","-0.00000139","0.0000000000000","6960.580","96.322","604.662","560.228","PAYLOAD","LARGE","PRC","2013-07-19","TSC","","1540518","93723768","0 PAYLOAD C","1 39210U 13037C   13244.09666654 -.00000139  00000-0 -72430-5 0  9991","2 39210 097.6971 261.1930 0031918 256.0643 103.7044 14.94978574  6379"
"2.0","GENERATED VIA SPACE-TRACK.ORG API","2013-09-01T00:31:18","18 SPCS","PAYLOAD A","2013-037A","EARTH","TEME","UTC","SGP4","2013-09-01T02:28:06.359232","14.68167158","0.00076660","98.0567","261.0994","226.0706","133.9876","0","U","39208","999","633","0.00004712300000","0.00000223","0.0000000000000","7045.066","98.081","672.332","661.531","PAYLOAD","LARGE","PRC","2013-07-19","TSC","","1540438","93721861","0 PAYLOAD A","1 39208U 13037A   13244.10285138  .00000223  00000-0  47123-4 0  9996","2 39208 098.0567 261.0994 0007666 226.0706 133.9876 14.68167158  6334"
